{"type": "FeatureCollection", "features": [ {"type": "Feature", "properties": {"norad_id": 66426, "name": "STARLINK-35589", "group": "last-30-days", "lat": -2.857188691036054, "lon": 72.5570785648908, "alt_km": 443.8202013899172, "timestamp": "2025-12-07T22:37:41.855915+00:00", "meta": {"OBJECT_NAME": "STARLINK-35589", "OBJECT_ID": "2025-259E", "EPOCH": "2025-12-07T06:00:04.999968", "MEAN_MOTION": 15.40641514, "ECCENTRICITY": 0.00013898, "INCLINATION": 43.0007, "RA_OF_ASC_NODE": 79.6203, "ARG_OF_PERICENTER": 273.3247, "MEAN_ANOMALY": 195.4308, "EPHEMERIS_TYPE": 0, "CLASSIFICATION_TYPE": "U", "NORAD_CAT_ID": 66426, "ELEMENT_SET_NO": 999, "REV_AT_EPOCH": 539, "BSTAR": 0.0019576297, "MEAN_MOTION_DOT": 0.00082197, "MEAN_MOTION_DDOT": 0}, "tle": {"line1": "1 66426U 25259E   25341.25005787  .00082197  00000+0  19576-2 0  9992", "line2": "2 66426  43.0007  79.6203 0001389 273.3247 195.4308 15.40641514  5394"}}, "geometry": {"type": "Point", "coordinates": [72.5570785648908, -2.857188691036054]}}, {"type": "Feature", "properties": {"norad_id": 66427, "name": "STARLINK-35611", "group": "last-30-days", "lat": 5.649578130734687, "lon": 81.6894553523725, "alt_km": 442.00054807769175, "timestamp": "2025-12-07T22:37:41.855928+00:00", "meta": {"OBJECT_NAME": "STARLINK-35611", "OBJECT_ID": "2025-259F", "EPOCH": "2025-12-07T06:00:04.999968", "MEAN_MOTION": 15.4069794, "ECCENTRICITY": 0.00019261, "INCLINATION": 43.0007, "RA_OF_ASC_NODE": 79.5892, "ARG_OF_PERICENTER": 305.0922, "MEAN_ANOMALY": 175.9935, "EPHEMERIS_TYPE": 0, "CLASSIFICATION_TYPE": "U", "NORAD_CAT_ID": 66427, "ELEMENT_SET_NO": 999, "REV_AT_EPOCH": 539, "BSTAR": 0.0022130996, "MEAN_MOTION_DOT": 0.00093275, "MEAN_MOTION_DDOT": 0}, "tle": {"line1": "1 66427U 25259F   25341.25005787  .00093275  00000+0  22131-2 0  9993", "line2": "2 66427  43.0007  79.5892 0001926 305.0922 175.9935 15.40697940  5391"}}, "geometry": {"type": "Point", "coordinates": [81.6894553523725, 5.649578130734687]}}, {"type": "Feature", "properties": {"norad_id": 66428, "name": "STARLINK-35610", "group": "last-30-days", "lat": 13.859344318276085, "lon": 90.91871531039558, "alt_km": 442.28991747847067, "timestamp": "2025-12-07T22:37:41.855939+00:00", "meta": {"OBJECT_NAME": "STARLINK-35610", "OBJECT_ID": "2025-259G", "EPOCH": "2025-12-07T06:00:04.999968", "MEAN_MOTION": 15.40607772, "ECCENTRICITY": 0.0001883, "INCLINATION": 43.0007, "RA_OF_ASC_NODE": 79.5591, "ARG_OF_PERICENTER": 260.2228, "MEAN_ANOMALY": 233.3542, "EPHEMERIS_TYPE": 0, "CLASSIFICATION_TYPE": "U", "NORAD_CAT_ID": 66428, "ELEMENT_SET_NO": 999, "REV_AT_EPOCH": 539, "BSTAR": 0.0021639676, "MEAN_MOTION_DOT": 0.00090896, "MEAN_MOTION_DDOT": 0}, "tle": {"line1": "1 66428U 25259G   25341.25005787  .00090896  00000+0  21640-2 0  9994", "line2": "2 66428  43.0007  79.5591 0001883 260.2228 233.3542 15.40607772  5398"}}, "geometry": {"type": "Point", "coordinates": [90.91871531039558, 13.859344318276085]}}, {"type": "Feature", "properties": {"norad_id": 66429, "name": "STARLINK-35533", "group": "last-30-days", "lat": 21.848437601284246, "lon": 101.01828906616889, "alt_km": 441.2257805468471, "timestamp": "2025-12-07T22:37:41.855949+00:00", "meta": {"OBJECT_NAME": "STARLINK-35533", "OBJECT_ID": "2025-259H", "EPOCH": "2025-12-07T06:00:04.999968", "MEAN_MOTION": 15.40694377, "ECCENTRICITY": 0.0001466, "INCLINATION": 43.0005, "RA_OF_ASC_NODE": 79.5268, "ARG_OF_PERICENTER": 270.9378, "MEAN_ANOMALY": 235.1528, "EPHEMERIS_TYPE": 0, "CLASSIFICATION_TYPE": "U", "NORAD_CAT_ID": 66429, "ELEMENT_SET_NO": 999, "REV_AT_EPOCH": 539, "BSTAR": -0.00089508257, "MEAN_MOTION_DOT": -0.00037503, "MEAN_MOTION_DDOT": 0}, "tle": {"line1": "1 66429U 25259H   25341.25005787 -.00037503  00000+0 -89508-3 0  9991", "line2": "2 66429  43.0005  79.5268 0001466 270.9378 235.1528 15.40694377  5390"}}, "geometry": {"type": "Point", "coordinates": [101.01828906616889, 21.848437601284246]}}, {"type": "Feature", "properties": {"norad_id": 66430, "name": "STARLINK-35470", "group": "last-30-days", "lat": 29.023726116470026, "lon": 112.04773436290992, "alt_km": 441.3874303745879, "timestamp": "2025-12-07T22:37:41.855960+00:00", "meta": {"OBJECT_NAME": "STARLINK-35470", "OBJECT_ID": "2025-259J", "EPOCH": "2025-12-07T06:00:04.999968", "MEAN_MOTION": 15.4091686, "ECCENTRICITY": 0.00020937, "INCLINATION": 43.0006, "RA_OF_ASC_NODE": 79.4984, "ARG_OF_PERICENTER": 270.7906, "MEAN_ANOMALY": 247.6321, "EPHEMERIS_TYPE": 0, "CLASSIFICATION_TYPE": "U", "NORAD_CAT_ID": 66430, "ELEMENT_SET_NO": 999, "REV_AT_EPOCH": 539, "BSTAR": -0.0094522167, "MEAN_MOTION_DOT": -0.00378939, "MEAN_MOTION_DDOT": 0}, "tle": {"line1": "1 66430U 25259J   25341.25005787 -.00378939  00000+0 -94522-2 0  9995", "line2": "2 66430  43.0006  79.4984 0002093 270.7906 247.6321 15.40916860  5392"}}, "geometry": {"type": "Point", "coordinates": [112.04773436290992, 29.023726116470026]}}, {"type": "Feature", "properties": {"norad_id": 66431, "name": "STARLINK-35439", "group": "last-30-days", "lat": 35.11577386272235, "lon": 124.46866044540535, "alt_km": 443.00928728929375, "timestamp": "2025-12-07T22:37:41.855971+00:00", "meta": {"OBJECT_NAME": "STARLINK-35439", "OBJECT_ID": "2025-259K", "EPOCH": "2025-12-07T06:00:04.999968", "MEAN_MOTION": 15.42733385, "ECCENTRICITY": 0.00011722, "INCLINATION": 43.0005, "RA_OF_ASC_NODE": 79.4705, "ARG_OF_PERICENTER": 253.5914, "MEAN_ANOMALY": 275.7825, "EPHEMERIS_TYPE": 0, "CLASSIFICATION_TYPE": "U", "NORAD_CAT_ID": 66431, "ELEMENT_SET_NO": 999, "REV_AT_EPOCH": 539, "BSTAR": -0.053714028, "MEAN_MOTION_DOT": -0.0212373, "MEAN_MOTION_DDOT": 0}, "tle": {"line1": "1 66431U 25259K   25341.25005787 -.02123730  00000+0 -53714-1 0  9992", "line2": "2 66431  43.0005  79.4705 0001172 253.5914 275.7825 15.42733385  5390"}}, "geometry": {"type": "Point", "coordinates": [124.46866044540535, 35.11577386272235]}}, {"type": "Feature", "properties": {"norad_id": 66432, "name": "STARLINK-35446", "group": "last-30-days", "lat": 40.014935213142046, "lon": 139.72200001483534, "alt_km": 437.69988680681126, "timestamp": "2025-12-07T22:37:41.855981+00:00", "meta": {"OBJECT_NAME": "STARLINK-35446", "OBJECT_ID": "2025-259L", "EPOCH": "2025-12-07T06:00:04.999968", "MEAN_MOTION": 15.43989965, "ECCENTRICITY": 0.00011116, "INCLINATION": 43.0009, "RA_OF_ASC_NODE": 79.4475, "ARG_OF_PERICENTER": 280.4469, "MEAN_ANOMALY": 258.5689, "EPHEMERIS_TYPE": 0, "CLASSIFICATION_TYPE": "U", "NORAD_CAT_ID": 66432, "ELEMENT_SET_NO": 999, "REV_AT_EPOCH": 539, "BSTAR": -0.048312315, "MEAN_MOTION_DOT": -0.0200805, "MEAN_MOTION_DDOT": 0}, "tle": {"line1": "1 66432U 25259L   25341.25005787 -.02008050  00000+0 -48312-1 0  9998", "line2": "2 66432  43.0009  79.4475 0001111 280.4469 258.5689 15.43989965  5391"}}, "geometry": {"type": "Point", "coordinates": [139.72200001483534, 40.014935213142046]}}, {"type": "Feature", "properties": {"norad_id": 66433, "name": "STARLINK-35457", "group": "last-30-days", "lat": 42.47744321374489, "lon": 154.700131285556, "alt_km": 433.53554155599704, "timestamp": "2025-12-07T22:37:41.855994+00:00", "meta": {"OBJECT_NAME": "STARLINK-35457", "OBJECT_ID": "2025-259M", "EPOCH": "2025-12-07T06:00:04.999968", "MEAN_MOTION": 15.45310327, "ECCENTRICITY": 9.269e-05, "INCLINATION": 43.0002, "RA_OF_ASC_NODE": 79.4283, "ARG_OF_PERICENTER": 276.6802, "MEAN_ANOMALY": 270.5523, "EPHEMERIS_TYPE": 0, "CLASSIFICATION_TYPE": "U", "NORAD_CAT_ID": 66433, "ELEMENT_SET_NO": 999, "REV_AT_EPOCH": 539, "BSTAR": -0.046125626, "MEAN_MOTION_DOT": -0.02006435, "MEAN_MOTION_DDOT": 0}, "tle": {"line1": "1 66433U 25259M   25341.25005787 -.02006435  00000+0 -46126-1 0  9995", "line2": "2 66433  43.0002  79.4283 0000926 276.6802 270.5523 15.45310327  5396"}}, "geometry": {"type": "Point", "coordinates": [154.700131285556, 42.47744321374489]}}, {"type": "Feature", "properties": {"norad_id": 66434, "name": "STARLINK-35389", "group": "last-30-days", "lat": 42.93996639590507, "lon": 168.43424827885562, "alt_km": 429.6232500618762, "timestamp": "2025-12-07T22:37:41.856005+00:00", "meta": {"OBJECT_NAME": "STARLINK-35389", "OBJECT_ID": "2025-259N", "EPOCH": "2025-12-07T06:00:04.999968", "MEAN_MOTION": 15.46668967, "ECCENTRICITY": 9.041e-05, "INCLINATION": 43.0006, "RA_OF_ASC_NODE": 79.4113, "ARG_OF_PERICENTER": 270.0561, "MEAN_ANOMALY": 283.944, "EPHEMERIS_TYPE": 0, "CLASSIFICATION_TYPE": "U", "NORAD_CAT_ID": 66434, "ELEMENT_SET_NO": 999, "REV_AT_EPOCH": 539, "BSTAR": -0.044809454, "MEAN_MOTION_DOT": -0.02039379, "MEAN_MOTION_DDOT": 0}, "tle": {"line1": "1 66434U 25259N   25341.25005787 -.02039379  00000+0 -44809-1 0  9995", "line2": "2 66434  43.0006  79.4113 0000904 270.0561 283.9440 15.46668967  5392"}}, "geometry": {"type": "Point", "coordinates": [168.43424827885562, 42.93996639590507]}}, {"type": "Feature", "properties": {"norad_id": 66435, "name": "STARLINK-35502", "group": "last-30-days", "lat": 42.02315560533858, "lon": -179.87124612064508, "alt_km": 425.87502289201075, "timestamp": "2025-12-07T22:37:41.856017+00:00", "meta": {"OBJECT_NAME": "STARLINK-35502", "OBJECT_ID": "2025-259P", "EPOCH": "2025-12-07T06:00:04.999968", "MEAN_MOTION": 15.48011101, "ECCENTRICITY": 8.541e-05, "INCLINATION": 43.0008, "RA_OF_ASC_NODE": 79.3987, "ARG_OF_PERICENTER": 272.1777, "MEAN_ANOMALY": 287.1841, "EPHEMERIS_TYPE": 0, "CLASSIFICATION_TYPE": "U", "NORAD_CAT_ID": 66435, "ELEMENT_SET_NO": 999, "REV_AT_EPOCH": 539, "BSTAR": -0.043323663, "MEAN_MOTION_DOT": -0.02063811, "MEAN_MOTION_DDOT": 0}, "tle": {"line1": "1 66435U 25259P   25341.25005787 -.02063811  00000+0 -43324-1 0  9995", "line2": "2 66435  43.0008  79.3987 0000854 272.1777 287.1841 15.48011101  5394"}}, "geometry": {"type": "Point", "coordinates": [-179.87124612064508, 42.02315560533858]}}]}